[
    {
        "Altitude(m)": 604221.2077917216,
        "Argument of Periapsis(deg)": 0.0,
        "Eccentricity": 0.0,
        "Inclination(deg)": 60.0,
        "Latitude(deg)": 14.117265611191252,
        "Longitude(deg)": -1.6658772850959596,
        "Mean Anomaly(deg)": 16.363599999999998,
        "RAAN(deg)": 90.0,
        "Satellite Name": "Test1 397",
        "Satellite Number": 397,
        "Semi-Major Axis(m)": 6980739.136638005,
        "Time(s)": 0
    },
    {
        "Altitude(m)": 604235.3489385011,
        "Argument of Periapsis(deg)": 0.00010418945913296404,
        "Eccentricity": 0.0,
        "Inclination(deg)": 60.0,
        "Latitude(deg)": 14.651663003107569,
        "Longitude(deg)": -1.37743154340844,
        "Mean Anomaly(deg)": 16.983706145461827,
        "RAAN(deg)": 89.99957995086027,
        "Satellite Name": "Test1 397",
        "Satellite Number": 397,
        "Semi-Major Axis(m)": 6980739.136638005,
        "Time(s)": 10
    },
    {
        "Altitude(m)": 604252.387190898,
        "Argument of Periapsis(deg)": 0.0002083789182659281,
        "Eccentricity": 0.0,
        "Inclination(deg)": 60.0,
        "Latitude(deg)": 15.185570585682035,
        "Longitude(deg)": -1.0873828040150315,
        "Mean Anomaly(deg)": 17.603812290923667,
        "RAAN(deg)": 89.99915990172052,
        "Satellite Name": "Test1 397",
        "Satellite Number": 397,
        "Semi-Major Axis(m)": 6980739.136638005,
        "Time(s)": 20
    },
    {
        "Altitude(m)": 604272.2907200367,
        "Argument of Periapsis(deg)": 0.00031256837739889213,
        "Eccentricity": 0.0,
        "Inclination(deg)": 60.0,
        "Latitude(deg)": 15.718967054446123,
        "Longitude(deg)": -0.7956635548471716,
        "Mean Anomaly(deg)": 18.223918436385496,
        "RAAN(deg)": 89.99873985258078,
        "Satellite Name": "Test1 397",
        "Satellite Number": 397,
        "Semi-Major Axis(m)": 6980739.136638005,
        "Time(s)": 30
    },
    {
        "Altitude(m)": 604295.0264222991,
        "Argument of Periapsis(deg)": 0.0004167578365318562,
        "Eccentricity": 0.0,
        "Inclination(deg)": 60.0,
        "Latitude(deg)": 16.25183076921718,
        "Longitude(deg)": -0.5022047612190728,
        "Mean Anomaly(deg)": 18.84402458184732,
        "RAAN(deg)": 89.99831980344103,
        "Satellite Name": "Test1 397",
        "Satellite Number": 397,
        "Semi-Major Axis(m)": 6980739.136638005,
        "Time(s)": 40
    },
    {
        "Altitude(m)": 604320.5599382721,
        "Argument of Periapsis(deg)": 0.0005209472956648203,
        "Eccentricity": 0.0,
        "Inclination(deg)": 60.0,
        "Latitude(deg)": 16.784139738060116,
        "Longitude(deg)": -0.2069368302463474,
        "Mean Anomaly(deg)": 19.46413072730915,
        "RAAN(deg)": 89.9978997543013,
        "Satellite Name": "Test1 397",
        "Satellite Number": 397,
        "Semi-Major Axis(m)": 6980739.136638005,
        "Time(s)": 50
    },
    {
        "Altitude(m)": 604348.855672265,
        "Argument of Periapsis(deg)": 0.0006251367547977843,
        "Eccentricity": 0.0,
        "Inclination(deg)": 60.0,
        "Latitude(deg)": 17.31587160076891,
        "Longitude(deg)": 0.09021093846229608,
        "Mean Anomaly(deg)": 20.084236872770976,
        "RAAN(deg)": 89.99747970516154,
        "Satellite Name": "Test1 397",
        "Satellite Number": 397,
        "Semi-Major Axis(m)": 6980739.136638005,
        "Time(s)": 60
    },
    {
        "Altitude(m)": 604379.8768124178,
        "Argument of Periapsis(deg)": 0.0007293262139307483,
        "Eccentricity": 0.0,
        "Inclination(deg)": 60.0,
        "Latitude(deg)": 17.84700361184182,
        "Longitude(deg)": 0.3893109029928125,
        "Mean Anomaly(deg)": 20.704343018232816,
        "RAAN(deg)": 89.9970596560218,
        "Satellite Name": "Test1 397",
        "Satellite Number": 397,
        "Semi-Major Axis(m)": 6980739.136638005,
        "Time(s)": 70
    },
    {
        "Altitude(m)": 604413.5853513767,
        "Argument of Periapsis(deg)": 0.0008335156730637124,
        "Eccentricity": 0.0,
        "Inclination(deg)": 60.0,
        "Latitude(deg)": 18.37751262292329,
        "Longitude(deg)": 0.6904361173441721,
        "Mean Anomaly(deg)": 21.324449163694645,
        "RAAN(deg)": 89.99663960688206,
        "Satellite Name": "Test1 397",
        "Satellite Number": 397,
        "Semi-Major Axis(m)": 6980739.136638005,
        "Time(s)": 80
    },
    {
        "Altitude(m)": 604449.9421075382,
        "Argument of Periapsis(deg)": 0.0009377051321966765,
        "Eccentricity": 0.0,
        "Inclination(deg)": 60.0,
        "Latitude(deg)": 18.90737506469381,
        "Longitude(deg)": 0.9936608834456316,
        "Mean Anomaly(deg)": 21.944555309156474,
        "RAAN(deg)": 89.99621955774232,
        "Satellite Name": "Test1 397",
        "Satellite Number": 397,
        "Semi-Major Axis(m)": 6980739.136638005,
        "Time(s)": 90
    },
    {
        "Altitude(m)": 604488.9067468692,
        "Argument of Periapsis(deg)": 0.0010418945913296407,
        "Eccentricity": 0.0,
        "Inclination(deg)": 60.0,
        "Latitude(deg)": 19.43656692817897,
        "Longitude(deg)": 1.2990613041232062,
        "Mean Anomaly(deg)": 22.564661454618314,
        "RAAN(deg)": 89.99579950860257,
        "Satellite Name": "Test1 397",
        "Satellite Number": 397,
        "Semi-Major Axis(m)": 6980739.136638005,
        "Time(s)": 100
    },
    {
        "Altitude(m)": 604530.4378052079,
        "Argument of Periapsis(deg)": 0.0011460840504626045,
        "Eccentricity": 0.0,
        "Inclination(deg)": 60.0,
        "Latitude(deg)": 19.96506374544899,
        "Longitude(deg)": 1.6067143241598325,
        "Mean Anomaly(deg)": 23.18476760008014,
        "RAAN(deg)": 89.99537945946282,
        "Satellite Name": "Test1 397",
        "Satellite Number": 397,
        "Semi-Major Axis(m)": 6980739.136638005,
        "Time(s)": 110
    },
    {
        "Altitude(m)": 604574.492711153,
        "Argument of Periapsis(deg)": 0.0012502735095955685,
        "Eccentricity": 0.0,
        "Inclination(deg)": 60.0,
        "Latitude(deg)": 20.492840569687225,
        "Longitude(deg)": 1.916698285215317,
        "Mean Anomaly(deg)": 23.80487374554197,
        "RAAN(deg)": 89.99495941032309,
        "Satellite Name": "Test1 397",
        "Satellite Number": 397,
        "Semi-Major Axis(m)": 6980739.136638005,
        "Time(s)": 120
    },
    {
        "Altitude(m)": 604621.0278094255,
        "Argument of Periapsis(deg)": 0.0013544629687285324,
        "Eccentricity": 0.0,
        "Inclination(deg)": 60.0,
        "Latitude(deg)": 21.019871954596614,
        "Longitude(deg)": 2.229093481747812,
        "Mean Anomaly(deg)": 24.424979891003794,
        "RAAN(deg)": 89.99453936118334,
        "Satellite Name": "Test1 397",
        "Satellite Number": 397,
        "Semi-Major Axis(m)": 6980739.136638005,
        "Time(s)": 130
    },
    {
        "Altitude(m)": 604669.9983847578,
        "Argument of Periapsis(deg)": 0.0014586524278614966,
        "Eccentricity": 0.0,
        "Inclination(deg)": 60.0,
        "Latitude(deg)": 21.54613193311316,
        "Longitude(deg)": 2.543981205077449,
        "Mean Anomaly(deg)": 25.045086036465637,
        "RAAN(deg)": 89.9941193120436,
        "Satellite Name": "Test1 397",
        "Satellite Number": 397,
        "Semi-Major Axis(m)": 6980739.136638005,
        "Time(s)": 140
    },
    {
        "Altitude(m)": 604721.3586862643,
        "Argument of Periapsis(deg)": 0.0015628418869944607,
        "Eccentricity": 0.0,
        "Inclination(deg)": 60.0,
        "Latitude(deg)": 22.071593995401862,
        "Longitude(deg)": 2.8614443013488753,
        "Mean Anomaly(deg)": 25.66519218192745,
        "RAAN(deg)": 89.99369926290386,
        "Satellite Name": "Test1 397",
        "Satellite Number": 397,
        "Semi-Major Axis(m)": 6980739.136638005,
        "Time(s)": 150
    },
    {
        "Altitude(m)": 604775.0619522642,
        "Argument of Periapsis(deg)": 0.0016670313461274247,
        "Eccentricity": 0.0,
        "Inclination(deg)": 60.0,
        "Latitude(deg)": 22.596231066102554,
        "Longitude(deg)": 3.1815677305272136,
        "Mean Anomaly(deg)": 26.28529832738929,
        "RAAN(deg)": 89.99327921376411,
        "Satellite Name": "Test1 397",
        "Satellite Number": 397,
        "Semi-Major Axis(m)": 6980739.136638005,
        "Time(s)": 160
    },
    {
        "Altitude(m)": 604831.0604356147,
        "Argument of Periapsis(deg)": 0.0017712208052603888,
        "Eccentricity": 0.0,
        "Inclination(deg)": 60.0,
        "Latitude(deg)": 23.12001548079075,
        "Longitude(deg)": 3.504437613557681,
        "Mean Anomaly(deg)": 26.90540447285113,
        "RAAN(deg)": 89.99285916462438,
        "Satellite Name": "Test1 397",
        "Satellite Number": 397,
        "Semi-Major Axis(m)": 6980739.136638005,
        "Time(s)": 170
    },
    {
        "Altitude(m)": 604889.3054294373,
        "Argument of Periapsis(deg)": 0.001875410264393353,
        "Eccentricity": 0.0,
        "Inclination(deg)": 60.0,
        "Latitude(deg)": 23.64291896162784,
        "Longitude(deg)": 3.8301417934356787,
        "Mean Anomaly(deg)": 27.52551061831295,
        "RAAN(deg)": 89.99243911548463,
        "Satellite Name": "Test1 397",
        "Satellite Number": 397,
        "Semi-Major Axis(m)": 6980739.136638005,
        "Time(s)": 180
    },
    {
        "Altitude(m)": 604949.7472933296,
        "Argument of Periapsis(deg)": 0.0019795997235263173,
        "Eccentricity": 0.0,
        "Inclination(deg)": 60.0,
        "Latitude(deg)": 24.16491259216427,
        "Longitude(deg)": 4.158770397309696,
        "Mean Anomaly(deg)": 28.14561676377479,
        "RAAN(deg)": 89.9920190663449,
        "Satellite Name": "Test1 397",
        "Satellite Number": 397,
        "Semi-Major Axis(m)": 6980739.136638005,
        "Time(s)": 190
    }
]